FENGYUN 3D              
1 43010U 17072A   26157.22375957 -.00000158  00000+0 -52707-4 0  9996
2 43010  99.0127 131.4487 0002664  79.5179 280.6296 14.19736268443430
NOAA 20 (JPSS-1)        
1 43013U 17073A   26156.86447899  .00000083  00000+0  60301-4 0  9998
2 43013  98.7769  96.4279 0000573  37.9960 322.1256 14.19509642442861
GOES 17                 
1 43226U 18022A   26156.97329777 -.00000170  00000+0  00000+0 0  9998
2 43226   0.9086  85.9206 0000699  10.2223  59.1522  1.00271226 30318
SENTINEL-3B             
1 43437U 18039A   26156.47801780  .00000122  00000+0  68428-4 0  9993
2 43437  98.6250 224.1778 0000937  75.1452 284.9833 14.26738325422452
FENGYUN 2H              
1 43491U 18050A   26157.00672062 -.00000118  00000+0  00000+0 0  9998
2 43491   3.0023  79.2032 0001440 126.5708 130.5331  1.00271800 29323
METOP-C                 
1 43689U 18087A   26156.94682618  .00000122  00000+0  75786-4 0  9999
2 43689  98.6648 216.7554 0001331 141.8281 218.2991 14.21509143393238
GEO-KOMPSAT-2A          
1 43823U 18100A   26156.94508372 -.00000331  00000+0  00000+0 0  9994
2 43823   0.0497 136.2948 0002448 305.6971 280.8748  1.00272486 27516
METEOR-M2 2             
1 44387U 19038A   26157.21601451  .00000270  00000+0  13683-3 0  9990
2 44387  98.9145 144.3400 0002346  64.2626 295.8794 14.24363794359735
ARKTIKA-M 1             
1 47719U 21016A   26153.03917935 -.00000200  00000+0  00000+0 0  9993
2 47719  63.2379  59.8266 7283239 269.8643  14.6915  2.00628509 38489
FENGYUN 3E              
1 49008U 21062A   26157.13838409  .00000077  00000+0  56762-4 0  9992
2 49008  98.7492 160.6697 0002684 103.6412 256.5063 14.19903286255017
GOES 18                 
1 51850U 22021A   26156.96376439  .00000109  00000+0  00000+0 0  9991
2 51850   0.0410 133.3665 0000601 353.4996 337.4782  1.00272126  6482
NOAA 21 (JPSS-2)        
1 54234U 22150A   26156.89779360  .00000075  00000+0  56278-4 0  9990
2 54234  98.7057  95.8767 0001024 182.8928 177.2243 14.19563489184945
METEOSAT-12 (MTG-I1)    
1 54743U 22170C   26156.91960941  .00000004  00000+0  00000+0 0  9996
2 54743   0.7257  21.0494 0003521  69.9880 133.9431  1.00271522 12868
TIANMU-1 03             
1 55973U 23039A   26157.18426543  .00020108  00000+0  40005-3 0  9992
2 55973  97.5238 330.7256 0004045 126.0355 234.1270 15.46966858179134
TIANMU-1 04             
1 55974U 23039B   26157.17795236  .00020808  00000+0  40555-3 0  9997
2 55974  97.5173 329.8722 0004726 123.7190 236.4510 15.47552956179141
TIANMU-1 05             
1 55975U 23039C   26157.22919229  .00019745  00000+0  39384-3 0  9990
2 55975  97.5218 330.3913 0003701 141.3552 218.7963 15.46895792179121
TIANMU-1 06             
1 55976U 23039D   26157.18066277  .00020623  00000+0  40330-3 0  9992
2 55976  97.5226 330.9656 0003965 137.4899 222.6658 15.47461217179142
FENGYUN 3G              
1 56232U 23055A   26157.23239221  .00033876  00000+0  51232-3 0  9990
2 56232  49.9930  42.4966 0005510 153.5012 206.6238 15.54310028178308
METEOR-M2 3             
1 57166U 23091A   26157.20781159  .00000011  00000+0  23457-4 0  9990
2 57166  98.6086 212.4103 0003718 185.2139 174.9002 14.24045938152950
TIANMU-1 07             
1 57399U 23101A   26157.17621027  .00007941  00000+0  27866-3 0  9999
2 57399  97.2594 208.0982 0003407 144.6934 215.4533 15.29678320159961
TIANMU-1 08             
1 57400U 23101B   26157.14288316  .00008775  00000+0  30752-3 0  9993
2 57400  97.2582 207.8378 0004981 142.5845 217.5743 15.29684137159951
TIANMU-1 09             
1 57401U 23101C   26157.19192102  .00008177  00000+0  28656-3 0  9992
2 57401  97.2539 207.3072 0003778 152.8933 207.2506 15.29711306159968
TIANMU-1 10             
1 57402U 23101D   26157.15935209  .00008610  00000+0  30180-3 0  9999
2 57402  97.2620 208.3148 0005360 155.8688 204.2805 15.29681287159956
FENGYUN 3F              
1 57490U 23111A   26157.19302240  .00000043  00000+0  40876-4 0  9990
2 57490  98.6836 227.4063 0001561 101.1238 259.0114 14.19937227147302
ARKTIKA-M 2             
1 58584U 23198A   26154.30372208  .00000150  00000+0  00000+0 0  9990
2 58584  63.2209 155.9142 6898549 267.4684  18.7857  2.00591941 18047
TIANMU-1 11             
1 58645U 23205A   26157.10955218  .00007234  00000+0  27632-3 0  9990
2 58645  97.3450 178.8412 0010163  52.3943 307.8217 15.26879751135835
TIANMU-1 12             
1 58646U 23205B   26157.21071913  .00007984  00000+0  30516-3 0  9991
2 58646  97.3440 178.6987 0008064  39.8198 320.3631 15.26841692135832
TIANMU-1 13             
1 58647U 23205C   26157.11076781  .00007314  00000+0  28108-3 0  9990
2 58647  97.3466 178.8713 0007270  21.5655 338.5888 15.26695604135817
TIANMU-1 14             
1 58648U 23205D   26157.22738022  .00007156  00000+0  27463-3 0  9993
2 58648  97.3404 178.1764 0008225  24.7193 335.4438 15.26741399135834
TIANMU-1 19             
1 58660U 23208A   26157.17953484  .00010455  00000+0  34708-3 0  9991
2 58660  97.4494 273.4255 0004774  12.4128 347.7229 15.31405597135645
TIANMU-1 20             
1 58661U 23208B   26157.16059377  .00010443  00000+0  33393-3 0  9995
2 58661  97.4436 274.0303 0007028  15.4975 344.6481 15.32596747135736
