OBJECT_NAME,OBJECT_ID,EPOCH,MEAN_MOTION,ECCENTRICITY,INCLINATION,RA_OF_ASC_NODE,ARG_OF_PERICENTER,MEAN_ANOMALY,EPHEMERIS_TYPE,CLASSIFICATION_TYPE,NORAD_CAT_ID,ELEMENT_SET_NO,REV_AT_EPOCH,BSTAR,MEAN_MOTION_DOT,MEAN_MOTION_DDOT
FENGYUN 3D,2017-072A,2026-06-06T05:22:12.826848,14.19736268,.0002664,99.0127,131.4487,79.5179,280.6296,0,U,43010,999,44343,-.52707E-4,-.158E-5,0
NOAA 20 (JPSS-1),2017-073A,2026-06-05T20:44:50.984736,14.19509642,.0000573,98.7769,96.4279,37.9960,322.1256,0,U,43013,999,44286,.60301E-4,.83E-6,0
GOES 17,2018-022A,2026-06-05T23:21:32.927328,1.00271226,.0000699,0.9086,85.9206,10.2223,59.1522,0,U,43226,999,3031,0,-.17E-5,0
SENTINEL-3B,2018-039A,2026-06-05T11:28:20.737920,14.26738325,.00009372,98.6250,224.1778,75.1452,284.9833,0,U,43437,999,42245,.68428198E-4,.122E-5,0
FENGYUN 2H,2018-050A,2026-06-06T00:09:40.661568,1.00271800,.000144,3.0023,79.2032,126.5708,130.5331,0,U,43491,999,2932,0,-.118E-5,0
METOP-C,2018-087A,2026-06-05T22:43:25.781952,14.21509143,.0001331,98.6648,216.7554,141.8281,218.2991,0,U,43689,999,39323,.75786E-4,.122E-5,0
GEO-KOMPSAT-2A,2018-100A,2026-06-05T22:40:55.233408,1.00272486,.0002448,0.0497,136.2948,305.6971,280.8748,0,U,43823,999,2751,0,-.331E-5,0
METEOR-M2 2,2019-038A,2026-06-06T05:11:03.653664,14.24363794,.0002346,98.9145,144.3400,64.2626,295.8794,0,U,44387,999,35973,.13683E-3,.27E-5,0
ARKTIKA-M 1,2021-016A,2026-06-02T00:56:25.095840,2.00628509,.72832396,63.2379,59.8266,269.8643,14.6915,0,U,47719,999,3848,0,-.2E-5,0
FENGYUN 3E,2021-062A,2026-06-06T03:19:16.385376,14.19903286,.0002684,98.7492,160.6697,103.6412,256.5063,0,U,49008,999,25501,.56762E-4,.77E-6,0
GOES 18,2022-021A,2026-06-05T23:07:49.243296,1.00272126,.0000601,0.0410,133.3665,353.4996,337.4782,0,U,51850,999,648,0,.109E-5,0
NOAA 21 (JPSS-2),2022-150A,2026-06-05T21:32:49.367040,14.19563489,.0001024,98.7057,95.8767,182.8928,177.2243,0,U,54234,999,18494,.56278E-4,.75E-6,0
METEOSAT-12 (MTG-I1),2022-170C,2026-06-05T22:04:14.253024,1.00271522,.0003521,0.7257,21.0494,69.9880,133.9431,0,U,54743,999,1286,0,.4E-7,0
TIANMU-1 03,2023-039A,2026-06-06T04:25:20.533152,15.46966858,.0004045,97.5238,330.7256,126.0355,234.1270,0,U,55973,999,17913,.40005E-3,.20108E-3,0
TIANMU-1 04,2023-039B,2026-06-06T04:16:15.083904,15.47552956,.0004726,97.5173,329.8722,123.7190,236.4510,0,U,55974,999,17914,.40555E-3,.20808E-3,0
TIANMU-1 05,2023-039C,2026-06-06T05:30:02.213856,15.46895792,.0003701,97.5218,330.3913,141.3552,218.7963,0,U,55975,999,17912,.39384E-3,.19745E-3,0
TIANMU-1 06,2023-039D,2026-06-06T04:20:09.263328,15.47461217,.0003965,97.5226,330.9656,137.4899,222.6658,0,U,55976,999,17914,.4033E-3,.20623E-3,0
FENGYUN 3G,2023-055A,2026-06-06T05:34:38.686944,15.54310028,.000551,49.9930,42.4966,153.5012,206.6238,0,U,56232,999,17830,.51232E-3,.33876E-3,0
METEOR-M2 3,2023-091A,2026-06-06T04:59:14.921376,14.24045938,.0003718,98.6086,212.4103,185.2139,174.9002,0,U,57166,999,15295,.23457E-4,.11E-6,0
TIANMU-1 07,2023-101A,2026-06-06T04:13:44.567328,15.29678320,.0003407,97.2594,208.0982,144.6934,215.4533,0,U,57399,999,15996,.27866E-3,.7941E-4,0
TIANMU-1 08,2023-101B,2026-06-06T03:25:45.105024,15.29684137,.0004981,97.2582,207.8378,142.5845,217.5743,0,U,57400,999,15995,.30752E-3,.8775E-4,0
TIANMU-1 09,2023-101C,2026-06-06T04:36:21.976128,15.29711306,.0003778,97.2539,207.3072,152.8933,207.2506,0,U,57401,999,15996,.28656E-3,.8177E-4,0
TIANMU-1 10,2023-101D,2026-06-06T03:49:28.020576,15.29681287,.000536,97.2620,208.3148,155.8688,204.2805,0,U,57402,999,15995,.3018E-3,.861E-4,0
FENGYUN 3F,2023-111A,2026-06-06T04:37:57.135360,14.19937227,.0001561,98.6836,227.4063,101.1238,259.0114,0,U,57490,999,14730,.40876E-4,.43E-6,0
ARKTIKA-M 2,2023-198A,2026-06-03T07:17:21.587712,2.00591941,.68985494,63.2209,155.9142,267.4684,18.7857,0,U,58584,999,1804,0,.15E-5,0
TIANMU-1 11,2023-205A,2026-06-06T02:37:45.308352,15.26879751,.0010163,97.3450,178.8412,52.3943,307.8217,0,U,58645,999,13583,.27632E-3,.7234E-4,0
TIANMU-1 12,2023-205B,2026-06-06T05:03:26.132832,15.26841692,.0008064,97.3440,178.6987,39.8198,320.3631,0,U,58646,999,13583,.30516E-3,.7984E-4,0
TIANMU-1 13,2023-205C,2026-06-06T02:39:30.338784,15.26695604,.000727,97.3466,178.8713,21.5655,338.5888,0,U,58647,999,13581,.28108E-3,.7314E-4,0
TIANMU-1 14,2023-205D,2026-06-06T05:27:25.651008,15.26741399,.0008225,97.3404,178.1764,24.7193,335.4438,0,U,58648,999,13583,.27463E-3,.7156E-4,0
TIANMU-1 19,2023-208A,2026-06-06T04:18:31.810176,15.31405597,.0004774,97.4494,273.4255,12.4128,347.7229,0,U,58660,999,13564,.34708E-3,.10455E-3,0
TIANMU-1 20,2023-208B,2026-06-06T03:51:15.301728,15.32596747,.0007028,97.4436,274.0303,15.4975,344.6481,0,U,58661,999,13573,.33393E-3,.10443E-3,0
